[{"OBJECT_NAME":"STARLINK-1474","OBJECT_ID":"2020-038J","EPOCH":"2025-12-08T18:26:38.093280","MEAN_MOTION":15.74849311,"ECCENTRICITY":0.00022701,"INCLINATION":53.0334,"RA_OF_ASC_NODE":164.7297,"ARG_OF_PERICENTER":123.342,"MEAN_ANOMALY":236.7816,"EPHEMERIS_TYPE":0,"CLASSIFICATION_TYPE":"U","NORAD_CAT_ID":45738,"ELEMENT_SET_NO":999,"REV_AT_EPOCH":30417,"BSTAR":0.00077538655,"MEAN_MOTION_DOT":0.00117886,"MEAN_MOTION_DDOT":0},{"OBJECT_NAME":"STARLINK-1475","OBJECT_ID":"2020-038K","EPOCH":"2025-12-08T21:51:12.459168","MEAN_MOTION":16.1182486,"ECCENTRICITY":0.0005073,"INCLINATION":53.0363,"RA_OF_ASC_NODE":124.8215,"ARG_OF_PERICENTER":321.745,"MEAN_ANOMALY":38.3223,"EPHEMERIS_TYPE":0,"CLASSIFICATION_TYPE":"U","NORAD_CAT_ID":45739,"ELEMENT_SET_NO":999,"REV_AT_EPOCH":30475,"BSTAR":0.00090832,"MEAN_MOTION_DOT":0.00985665,"MEAN_MOTION_DDOT":0.00059798},{"OBJECT_NAME":"STARLINK-1480","OBJECT_ID":"2020-038M","EPOCH":"2025-12-09T03:11:42.406080","MEAN_MOTION":15.06398777,"ECCENTRICITY":0.0001335,"INCLINATION":53.0545,"RA_OF_ASC_NODE":283.1413,"ARG_OF_PERICENTER":92.196,"MEAN_ANOMALY":267.9182,"EPHEMERIS_TYPE":0,"CLASSIFICATION_TYPE":"U","NORAD_CAT_ID":45741,"ELEMENT_SET_NO":999,"REV_AT_EPOCH":30255,"BSTAR":0.00029496,"MEAN_MOTION_DOT":4.115e-5,"MEAN_MOTION_DDOT":0},{"OBJECT_NAME":"STARLINK-1500","OBJECT_ID":"2020-038Q","EPOCH":"2025-12-09T03:20:36.740832","MEAN_MOTION":15.29726896,"ECCENTRICITY":0.0002061,"INCLINATION":53.0381,"RA_OF_ASC_NODE":255.8244,"ARG_OF_PERICENTER":41.4045,"MEAN_ANOMALY":318.7109,"EPHEMERIS_TYPE":0,"CLASSIFICATION_TYPE":"U","NORAD_CAT_ID":45744,"ELEMENT_SET_NO":999,"REV_AT_EPOCH":30293,"BSTAR":0.0009082,"MEAN_MOTION_DOT":0.00026247,"MEAN_MOTION_DDOT":0},{"OBJECT_NAME":"STARLINK-1504","OBJECT_ID":"2020-038S","EPOCH":"2025-12-09T01:34:29.261280","MEAN_MOTION":15.43989365,"ECCENTRICITY":0.0003415,"INCLINATION":53.0264,"RA_OF_ASC_NODE":216.9863,"ARG_OF_PERICENTER":77.5695,"MEAN_ANOMALY":282.5691,"EPHEMERIS_TYPE":0,"CLASSIFICATION_TYPE":"U","NORAD_CAT_ID":45746,"ELEMENT_SET_NO":999,"REV_AT_EPOCH":30346,"BSTAR":0.00087375,"MEAN_MOTION_DOT":0.00040238,"MEAN_MOTION_DDOT":0},{"OBJECT_NAME":"STARLINK-1506","OBJECT_ID":"2020-038T","EPOCH":"2025-12-08T23:58:14.847744","MEAN_MOTION":15.22912298,"ECCENTRICITY":0.0002933,"INCLINATION":53.0674,"RA_OF_ASC_NODE":260.8546,"ARG_OF_PERICENTER":32.6924,"MEAN_ANOMALY":327.4253,"EPHEMERIS_TYPE":0,"CLASSIFICATION_TYPE":"U","NORAD_CAT_ID":45747,"ELEMENT_SET_NO":999,"REV_AT_EPOCH":30285,"BSTAR":0.00077528,"MEAN_MOTION_DOT":0.00018131,"MEAN_MOTION_DDOT":0},{"OBJECT_NAME":"STARLINK-1464","OBJECT_ID":"2020-038X","EPOCH":"2025-12-09T00:03:16.815744","MEAN_MOTION":15.06381108,"ECCENTRICITY":0.0001521,"INCLINATION":53.0545,"RA_OF_ASC_NODE":263.7312,"ARG_OF_PERICENTER":117.4938,"MEAN_ANOMALY":242.6206,"EPHEMERIS_TYPE":0,"CLASSIFICATION_TYPE":"U","NORAD_CAT_ID":45751,"ELEMENT_SET_NO":999,"REV_AT_EPOCH":30281,"BSTAR":0.0010246,"MEAN_MOTION_DOT":0.00015005,"MEAN_MOTION_DDOT":0},{"OBJECT_NAME":"STARLINK-1477","OBJECT_ID":"2020-038AA","EPOCH":"2025-12-09T04:18:54.783936","MEAN_MOTION":15.08843347,"ECCENTRICITY":0.0006208,"INCLINATION":53.0527,"RA_OF_ASC_NODE":262.5493,"ARG_OF_PERICENTER":87.327,"MEAN_ANOMALY":272.843,"EPHEMERIS_TYPE":0,"CLASSIFICATION_TYPE":"U","NORAD_CAT_ID":45754,"ELEMENT_SET_NO":999,"REV_AT_EPOCH":30284,"BSTAR":0.0015446,"MEAN_MOTION_DOT":0.00024392,"MEAN_MOTION_DDOT":0},{"OBJECT_NAME":"STARLINK-1478","OBJECT_ID":"2020-038AB","EPOCH":"2025-12-09T02:26:35.681568","MEAN_MOTION":15.06394483,"ECCENTRICITY":0.0001352,"INCLINATION":53.0533,"RA_OF_ASC_NODE":263.2815,"ARG_OF_PERICENTER":88.2304,"MEAN_ANOMALY":271.884,"EPHEMERIS_TYPE":0,"CLASSIFICATION_TYPE":"U","NORAD_CAT_ID":45755,"ELEMENT_SET_NO":999,"REV_AT_EPOCH":30281,"BSTAR":8.4265e-5,"MEAN_MOTION_DOT":9.74e-6,"MEAN_MOTION_DDOT":0},{"OBJECT_NAME":"STARLINK-1484","OBJECT_ID":"2020-038AC","EPOCH":"2025-12-09T00:00:02.000160","MEAN_MOTION":15.69063872,"ECCENTRICITY":0.0001459,"INCLINATION":53.012,"RA_OF_ASC_NODE":153.1546,"ARG_OF_PERICENTER":152.9958,"MEAN_ANOMALY":44.87,"EPHEMERIS_TYPE":0,"CLASSIFICATION_TYPE":"U","NORAD_CAT_ID":45756,"ELEMENT_SET_NO":999,"REV_AT_EPOCH":600,"BSTAR":0.00029995,"MEAN_MOTION_DOT":0.00034951,"MEAN_MOTION_DDOT":0},{"OBJECT_NAME":"STARLINK-1493","OBJECT_ID":"2020-038AF","EPOCH":"2025-12-09T03:46:12.710784","MEAN_MOTION":15.06386691,"ECCENTRICITY":0.0001279,"INCLINATION":53.054,"RA_OF_ASC_NODE":263.0341,"ARG_OF_PERICENTER":85.0537,"MEAN_ANOMALY":275.0598,"EPHEMERIS_TYPE":0,"CLASSIFICATION_TYPE":"U","NORAD_CAT_ID":45759,"ELEMENT_SET_NO":999,"REV_AT_EPOCH":30282,"BSTAR":-1.1833e-5,"MEAN_MOTION_DOT":-4.58e-6,"MEAN_MOTION_DDOT":0},{"OBJECT_NAME":"STARLINK-1494","OBJECT_ID":"2020-038AG","EPOCH":"2025-12-09T01:56:03.033024","MEAN_MOTION":15.55057834,"ECCENTRICITY":0.0005519,"INCLINATION":53.0519,"RA_OF_ASC_NODE":235.6827,"ARG_OF_PERICENTER":125.8179,"MEAN_ANOMALY":234.3345,"EPHEMERIS_TYPE":0,"CLASSIFICATION_TYPE":"U","NORAD_CAT_ID":45760,"ELEMENT_SET_NO":999,"REV_AT_EPOCH":30321,"BSTAR":0.00065737,"MEAN_MOTION_DOT":0.00044757,"MEAN_MOTION_DDOT":0},{"OBJECT_NAME":"STARLINK-1502","OBJECT_ID":"2020-038AL","EPOCH":"2025-12-09T01:22:54.327072","MEAN_MOTION":15.063896,"ECCENTRICITY":0.0001717,"INCLINATION":53.0551,"RA_OF_ASC_NODE":263.481,"ARG_OF_PERICENTER":118.4428,"MEAN_ANOMALY":241.6734,"EPHEMERIS_TYPE":0,"CLASSIFICATION_TYPE":"U","NORAD_CAT_ID":45764,"ELEMENT_SET_NO":999,"REV_AT_EPOCH":30282,"BSTAR":-0.00020639,"MEAN_MOTION_DOT":-3.354e-5,"MEAN_MOTION_DDOT":0},{"OBJECT_NAME":"STARLINK-1470","OBJECT_ID":"2020-038AU","EPOCH":"2025-12-09T02:47:16.882368","MEAN_MOTION":15.20567177,"ECCENTRICITY":0.0007254,"INCLINATION":53.051,"RA_OF_ASC_NODE":232.2248,"ARG_OF_PERICENTER":65.1891,"MEAN_ANOMALY":294.9858,"EPHEMERIS_TYPE":0,"CLASSIFICATION_TYPE":"U","NORAD_CAT_ID":45772,"ELEMENT_SET_NO":999,"REV_AT_EPOCH":30326,"BSTAR":0.0022809,"MEAN_MOTION_DOT":0.00050631,"MEAN_MOTION_DDOT":0},{"OBJECT_NAME":"STARLINK-1482","OBJECT_ID":"2020-038AV","EPOCH":"2025-12-08T22:56:56.974272","MEAN_MOTION":15.06398417,"ECCENTRICITY":0.0001536,"INCLINATION":53.0534,"RA_OF_ASC_NODE":243.9358,"ARG_OF_PERICENTER":98.9624,"MEAN_ANOMALY":261.1538,"EPHEMERIS_TYPE":0,"CLASSIFICATION_TYPE":"U","NORAD_CAT_ID":45773,"ELEMENT_SET_NO":999,"REV_AT_EPOCH":30308,"BSTAR":0.00028029,"MEAN_MOTION_DOT":3.896e-5,"MEAN_MOTION_DDOT":0},{"OBJECT_NAME":"STARLINK-1496","OBJECT_ID":"2020-038BC","EPOCH":"2025-12-09T02:55:46.957728","MEAN_MOTION":15.06403128,"ECCENTRICITY":0.0001219,"INCLINATION":53.0539,"RA_OF_ASC_NODE":243.1908,"ARG_OF_PERICENTER":93.3009,"MEAN_ANOMALY":266.8119,"EPHEMERIS_TYPE":0,"CLASSIFICATION_TYPE":"U","NORAD_CAT_ID":45780,"ELEMENT_SET_NO":999,"REV_AT_EPOCH":30309,"BSTAR":0.00026583,"MEAN_MOTION_DOT":3.681e-5,"MEAN_MOTION_DDOT":0},{"OBJECT_NAME":"STARLINK-1497","OBJECT_ID":"2020-038BD","EPOCH":"2025-12-09T06:00:02.000160","MEAN_MOTION":15.66170767,"ECCENTRICITY":0.0005807,"INCLINATION":53.0345,"RA_OF_ASC_NODE":173.1376,"ARG_OF_PERICENTER":109.8643,"MEAN_ANOMALY":201.9271,"EPHEMERIS_TYPE":0,"CLASSIFICATION_TYPE":"U","NORAD_CAT_ID":45781,"ELEMENT_SET_NO":999,"REV_AT_EPOCH":597,"BSTAR":0.0020736,"MEAN_MOTION_DOT":0.00222983,"MEAN_MOTION_DDOT":0},{"OBJECT_NAME":"STARLINK-1510","OBJECT_ID":"2020-038BG","EPOCH":"2025-12-09T06:00:02.000160","MEAN_MOTION":15.88672522,"ECCENTRICITY":0.0002925,"INCLINATION":53.0241,"RA_OF_ASC_NODE":143.9919,"ARG_OF_PERICENTER":270.5848,"MEAN_ANOMALY":2.7208,"EPHEMERIS_TYPE":0,"CLASSIFICATION_TYPE":"U","NORAD_CAT_ID":45784,"ELEMENT_SET_NO":999,"REV_AT_EPOCH":602,"BSTAR":0.0011099,"MEAN_MOTION_DOT":0.00329993,"MEAN_MOTION_DDOT":0},{"OBJECT_NAME":"STARLINK-1513","OBJECT_ID":"2020-038BJ","EPOCH":"2025-12-09T03:38:15.565056","MEAN_MOTION":15.06397168,"ECCENTRICITY":0.0001396,"INCLINATION":53.0543,"RA_OF_ASC_NODE":243.0603,"ARG_OF_PERICENTER":81.8128,"MEAN_ANOMALY":278.3019,"EPHEMERIS_TYPE":0,"CLASSIFICATION_TYPE":"U","NORAD_CAT_ID":45786,"ELEMENT_SET_NO":999,"REV_AT_EPOCH":30311,"BSTAR":0.0002063,"MEAN_MOTION_DOT":2.792e-5,"MEAN_MOTION_DDOT":0},{"OBJECT_NAME":"STARLINK-1522","OBJECT_ID":"2020-055A","EPOCH":"2025-12-08T19:12:41.003712","MEAN_MOTION":15.06391341,"ECCENTRICITY":0.0001528,"INCLINATION":53.0535,"RA_OF_ASC_NODE":174.6342,"ARG_OF_PERICENTER":94.5888,"MEAN_ANOMALY":265.5276,"EPHEMERIS_TYPE":0,"CLASSIFICATION_TYPE":"U","NORAD_CAT_ID":46027,"ELEMENT_SET_NO":999,"REV_AT_EPOCH":29518,"BSTAR":7.9922101e-5,"MEAN_MOTION_DOT":9.09e-6,"MEAN_MOTION_DDOT":0},{"OBJECT_NAME":"STARLINK-1523","OBJECT_ID":"2020-055B","EPOCH":"2025-12-08T22:44:59.455104","MEAN_MOTION":15.06398943,"ECCENTRICITY":0.0001414,"INCLINATION":53.0542,"RA_OF_ASC_NODE":173.9768,"ARG_OF_PERICENTER":88.3255,"MEAN_ANOMALY":271.7896,"EPHEMERIS_TYPE":0,"CLASSIFICATION_TYPE":"U","NORAD_CAT_ID":46028,"ELEMENT_SET_NO":999,"REV_AT_EPOCH":29522,"BSTAR":8.3265e-5,"MEAN_MOTION_DOT":9.59e-6,"MEAN_MOTION_DDOT":0},{"OBJECT_NAME":"STARLINK-1526","OBJECT_ID":"2020-055C","EPOCH":"2025-12-08T22:34:22.550592","MEAN_MOTION":15.06398939,"ECCENTRICITY":0.0001264,"INCLINATION":53.0539,"RA_OF_ASC_NODE":174.0058,"ARG_OF_PERICENTER":91.591,"MEAN_ANOMALY":268.5224,"EPHEMERIS_TYPE":0,"CLASSIFICATION_TYPE":"U","NORAD_CAT_ID":46029,"ELEMENT_SET_NO":999,"REV_AT_EPOCH":29521,"BSTAR":8.4669e-5,"MEAN_MOTION_DOT":9.8e-6,"MEAN_MOTION_DDOT":0},{"OBJECT_NAME":"STARLINK-1555","OBJECT_ID":"2020-055F","EPOCH":"2025-12-08T22:13:09.871680","MEAN_MOTION":15.06403112,"ECCENTRICITY":0.000157,"INCLINATION":53.0531,"RA_OF_ASC_NODE":174.0719,"ARG_OF_PERICENTER":82.2632,"MEAN_ANOMALY":277.8535,"EPHEMERIS_TYPE":0,"CLASSIFICATION_TYPE":"U","NORAD_CAT_ID":46032,"ELEMENT_SET_NO":999,"REV_AT_EPOCH":29521,"BSTAR":0.00033823,"MEAN_MOTION_DOT":4.76e-5,"MEAN_MOTION_DDOT":0}]
